{
  "norad_id": 54045,
  "name": "YAOGAN-36 02C",
  "history": [
    {
      "epoch": "2026-03-28T20:20:37.479264Z",
      "apogee_km": 442.78098823345044,
      "perigee_km": 431.9679067015868,
      "latitude_deg": -7.427446506188783e-06,
      "longitude_deg": 105.45220205336591,
      "height_km": 441.66291515943277,
      "semi_major_axis_km": 6815.511447467518,
      "eccentricity": 0.00079327,
      "inclination_deg": 34.9896,
      "raan_deg": 236.8706,
      "arg_perigee_deg": 176.0622,
      "mean_anomaly_deg": 184.0162,
      "mean_motion_rev_day": 15.42961482
    },
    {
      "epoch": "2026-03-29T02:33:18.239040Z",
      "apogee_km": 442.73039399587014,
      "perigee_km": 431.8856578706045,
      "latitude_deg": -7.512496325902074e-06,
      "longitude_deg": 10.350279590521453,
      "height_km": 441.62362819632096,
      "semi_major_axis_km": 6815.445025933237,
      "eccentricity": 0.0007956,
      "inclination_deg": 34.99,
      "raan_deg": 235.1936,
      "arg_perigee_deg": 178.5273,
      "mean_anomaly_deg": 181.5472,
      "mean_motion_rev_day": 15.42984038
    },
    {
      "epoch": "2026-03-30T01:50:47.425920Z",
      "apogee_km": 442.4293849627247,
      "perigee_km": 431.56156580952575,
      "latitude_deg": 4.297681591353536e-05,
      "longitude_deg": 13.727994381755735,
      "height_km": 441.27798212854,
      "semi_major_axis_km": 6815.132475386125,
      "eccentricity": 0.00079733,
      "inclination_deg": 34.9899,
      "raan_deg": 228.8994,
      "arg_perigee_deg": 187.5713,
      "mean_anomaly_deg": 172.4889,
      "mean_motion_rev_day": 15.43090184
    },
    {
      "epoch": "2026-03-30T14:16:04.769760Z",
      "apogee_km": 442.3073279116379,
      "perigee_km": 431.37651062386794,
      "latitude_deg": -3.074814476582518e-05,
      "longitude_deg": -176.46180800194796,
      "height_km": 441.0753151271641,
      "semi_major_axis_km": 6814.978919267753,
      "eccentricity": 0.00080197,
      "inclination_deg": 34.9901,
      "raan_deg": 225.5421,
      "arg_perigee_deg": 192.4467,
      "mean_anomaly_deg": 167.6056,
      "mean_motion_rev_day": 15.43142338
    },
    {
      "epoch": "2026-03-30T18:55:33.386304Z",
      "apogee_km": 442.2495178501731,
      "perigee_km": 431.3174313200716,
      "latitude_deg": 1.9081145905005016e-05,
      "longitude_deg": 112.22003224691834,
      "height_km": 440.97840795065355,
      "semi_major_axis_km": 6814.920474585122,
      "eccentricity": 0.00080207,
      "inclination_deg": 34.9902,
      "raan_deg": 224.2844,
      "arg_perigee_deg": 194.2295,
      "mean_anomaly_deg": 165.8201,
      "mean_motion_rev_day": 15.43162189
    }
  ]
}